{"searchContext": {"regionId": "5600000000000", "contentType": "district", "withParent": 1, "callback": "Ext.data.JsonP.callback2"}, "result": [
    {"id": "5605500000000", "name": "Абдулинский", "zip": "461743", "type": "Район", "typeShort": "р-н", "parents": [
        {"id": "5600000000000", "name": "Оренбургская", "zip": "460000", "type": "Область", "typeShort": "обл"}
    ]},
    {"id": "5604300000000", "name": "Адамовский", "zip": "462800", "type": "Район", "typeShort": "р-н", "parents": [
        {"id": "5600000000000", "name": "Оренбургская", "zip": "460000", "type": "Область", "typeShort": "обл"}
    ]},
    {"id": "5600200000000", "name": "Акбулакский", "zip": "461551", "type": "Район", "typeShort": "р-н", "parents": [
        {"id": "5600000000000", "name": "Оренбургская", "zip": "460000", "type": "Область", "typeShort": "обл"}
    ]},
    {"id": "5604200000000", "name": "Александровский", "zip": "461830", "type": "Район", "typeShort": "р-н", "parents": [
        {"id": "5600000000000", "name": "Оренбургская", "zip": "460000", "type": "Область", "typeShort": "обл"}
    ]},
    {"id": "5600900000000", "name": "Асекеевский", "zip": "461702", "type": "Район", "typeShort": "р-н", "parents": [
        {"id": "5600000000000", "name": "Оренбургская", "zip": "460000", "type": "Область", "typeShort": "обл"}
    ]},
    {"id": "5604500000000", "name": "Беляевский", "zip": "461330", "type": "Район", "typeShort": "р-н", "parents": [
        {"id": "5600000000000", "name": "Оренбургская", "zip": "460000", "type": "Область", "typeShort": "обл"}
    ]},
    {"id": "5600300000000", "name": "Бугурусланский", "zip": "461633", "type": "Район", "typeShort": "р-н", "parents": [
        {"id": "5600000000000", "name": "Оренбургская", "zip": "460000", "type": "Область", "typeShort": "обл"}
    ]},
    {"id": "5601200000000", "name": "Бузулукский", "zip": "461045", "type": "Район", "typeShort": "р-н", "parents": [
        {"id": "5600000000000", "name": "Оренбургская", "zip": "460000", "type": "Область", "typeShort": "обл"}
    ]},
    {"id": "5600400000000", "name": "Гайский", "zip": "462635", "type": "Район", "typeShort": "р-н", "parents": [
        {"id": "5600000000000", "name": "Оренбургская", "zip": "460000", "type": "Область", "typeShort": "обл"}
    ]},
    {"id": "5602100000000", "name": "Грачевский", "zip": "461800", "type": "Район", "typeShort": "р-н", "parents": [
        {"id": "5600000000000", "name": "Оренбургская", "zip": "460000", "type": "Область", "typeShort": "обл"}
    ]},
    {"id": "5604600000000", "name": "Домбаровский", "zip": "462734", "type": "Район", "typeShort": "р-н", "parents": [
        {"id": "5600000000000", "name": "Оренбургская", "zip": "460000", "type": "Область", "typeShort": "обл"}
    ]},
    {"id": "5604700000000", "name": "Илекский", "zip": "461350", "type": "Район", "typeShort": "р-н", "parents": [
        {"id": "5600000000000", "name": "Оренбургская", "zip": "460000", "type": "Область", "typeShort": "обл"}
    ]},
    {"id": "5604800000000", "name": "Кваркенский", "zip": "462860", "type": "Район", "typeShort": "р-н", "parents": [
        {"id": "5600000000000", "name": "Оренбургская", "zip": "460000", "type": "Область", "typeShort": "обл"}
    ]},
    {"id": "5604900000000", "name": "Красногвардейский", "zip": "461150", "type": "Район", "typeShort": "р-н", "parents": [
        {"id": "5600000000000", "name": "Оренбургская", "zip": "460000", "type": "Область", "typeShort": "обл"}
    ]},
    {"id": "5601300000000", "name": "Кувандыкский", "zip": "462202", "type": "Район", "typeShort": "р-н", "parents": [
        {"id": "5600000000000", "name": "Оренбургская", "zip": "460000", "type": "Область", "typeShort": "обл"}
    ]},
    {"id": "5601600000000", "name": "Курманаевский", "zip": "461060", "type": "Район", "typeShort": "р-н", "parents": [
        {"id": "5600000000000", "name": "Оренбургская", "zip": "460000", "type": "Область", "typeShort": "обл"}
    ]},
    {"id": "5603400000000", "name": "Матвеевский", "zip": "461880", "type": "Район", "typeShort": "р-н", "parents": [
        {"id": "5600000000000", "name": "Оренбургская", "zip": "460000", "type": "Область", "typeShort": "обл"}
    ]},
    {"id": "5601000000000", "name": "Новоорский", "zip": "462800", "type": "Район", "typeShort": "р-н", "parents": [
        {"id": "5600000000000", "name": "Оренбургская", "zip": "460000", "type": "Область", "typeShort": "обл"}
    ]},
    {"id": "5602000000000", "name": "Новосергиевский", "zip": "461200", "type": "Район", "typeShort": "р-н", "parents": [
        {"id": "5600000000000", "name": "Оренбургская", "zip": "460000", "type": "Область", "typeShort": "обл"}
    ]},
    {"id": "5605100000000", "name": "Октябрьский", "zip": "462030", "type": "Район", "typeShort": "р-н", "parents": [
        {"id": "5600000000000", "name": "Оренбургская", "zip": "460000", "type": "Область", "typeShort": "обл"}
    ]},
    {"id": "5601900000000", "name": "Оренбургский", "zip": "461100", "type": "Район", "typeShort": "р-н", "parents": [
        {"id": "5600000000000", "name": "Оренбургская", "zip": "460000", "type": "Область", "typeShort": "обл"}
    ]},
    {"id": "5601100000000", "name": "Первомайский", "zip": "461980", "type": "Район", "typeShort": "р-н", "parents": [
        {"id": "5600000000000", "name": "Оренбургская", "zip": "460000", "type": "Область", "typeShort": "обл"}
    ]},
    {"id": "5604000000000", "name": "Переволоцкий", "zip": "461233", "type": "Район", "typeShort": "р-н", "parents": [
        {"id": "5600000000000", "name": "Оренбургская", "zip": "460000", "type": "Область", "typeShort": "обл"}
    ]},
    {"id": "5604100000000", "name": "Пономаревский", "zip": "461781", "type": "Район", "typeShort": "р-н", "parents": [
        {"id": "5600000000000", "name": "Оренбургская", "zip": "460000", "type": "Область", "typeShort": "обл"}
    ]},
    {"id": "5600500000000", "name": "Сакмарский", "zip": "461420", "type": "Район", "typeShort": "р-н", "parents": [
        {"id": "5600000000000", "name": "Оренбургская", "zip": "460000", "type": "Область", "typeShort": "обл"}
    ]},
    {"id": "5601400000000", "name": "Саракташский", "zip": "462100", "type": "Район", "typeShort": "р-н", "parents": [
        {"id": "5600000000000", "name": "Оренбургская", "zip": "460000", "type": "Область", "typeShort": "обл"}
    ]},
    {"id": "5602700000000", "name": "Светлинский", "zip": "462740", "type": "Район", "typeShort": "р-н", "parents": [
        {"id": "5600000000000", "name": "Оренбургская", "zip": "460000", "type": "Область", "typeShort": "обл"}
    ]},
    {"id": "5601800000000", "name": "Северный", "zip": "461670", "type": "Район", "typeShort": "р-н", "parents": [
        {"id": "5600000000000", "name": "Оренбургская", "zip": "460000", "type": "Область", "typeShort": "обл"}
    ]},
    {"id": "5601500000000", "name": "Соль-Илецкий", "zip": "461504", "type": "Район", "typeShort": "р-н", "parents": [
        {"id": "5600000000000", "name": "Оренбургская", "zip": "460000", "type": "Область", "typeShort": "обл"}
    ]},
    {"id": "5600600000000", "name": "Сорочинский", "zip": "461900", "type": "Район", "typeShort": "р-н", "parents": [
        {"id": "5600000000000", "name": "Оренбургская", "zip": "460000", "type": "Область", "typeShort": "обл"}
    ]},
    {"id": "5605400000000", "name": "Ташлинский", "zip": "461170", "type": "Район", "typeShort": "р-н", "parents": [
        {"id": "5600000000000", "name": "Оренбургская", "zip": "460000", "type": "Область", "typeShort": "обл"}
    ]},
    {"id": "5601700000000", "name": "Тоцкий", "zip": "461131", "type": "Район", "typeShort": "р-н", "parents": [
        {"id": "5600000000000", "name": "Оренбургская", "zip": "460000", "type": "Область", "typeShort": "обл"}
    ]},
    {"id": "5600700000000", "name": "Тюльганский", "zip": "462011", "type": "Район", "typeShort": "р-н", "parents": [
        {"id": "5600000000000", "name": "Оренбургская", "zip": "460000", "type": "Область", "typeShort": "обл"}
    ]},
    {"id": "5605000000000", "name": "Шарлыкский", "zip": "461450", "type": "Район", "typeShort": "р-н", "parents": [
        {"id": "5600000000000", "name": "Оренбургская", "zip": "460000", "type": "Область", "typeShort": "обл"}
    ]},
    {"id": "5600800000000", "name": "Ясненский", "zip": "462780", "type": "Район", "typeShort": "р-н", "parents": [
        {"id": "5600000000000", "name": "Оренбургская", "zip": "460000", "type": "Область", "typeShort": "обл"}
    ]}
]}